{"type": "FeatureCollection", "features": [ {"type": "Feature", "properties": {"norad_id": 32289, "name": "YAOGAN-3", "group": "resource", "lat": -65.31404319521396, "lon": 34.193710244600496, "alt_km": 606.261164671424, "timestamp": "2025-12-16T03:53:26.715399+00:00", "meta": {"OBJECT_NAME": "YAOGAN-3", "OBJECT_ID": "2007-055A", "EPOCH": "2025-12-15T08:50:47.696640", "MEAN_MOTION": 14.89876327, "ECCENTRICITY": 0.00013569, "INCLINATION": 97.8371, "RA_OF_ASC_NODE": 15.9705, "ARG_OF_PERICENTER": 75.782, "MEAN_ANOMALY": 284.3548, "EPHEMERIS_TYPE": 0, "CLASSIFICATION_TYPE": "U", "NORAD_CAT_ID": 32289, "ELEMENT_SET_NO": 999, "REV_AT_EPOCH": 97848, "BSTAR": 0.00036663379, "MEAN_MOTION_DOT": 3.469e-05, "MEAN_MOTION_DDOT": 0}, "tle": {"line1": "1 32289U 07055A   25349.36860760  .00003469  00000+0  36663-3 0  9998", "line2": "2 32289  97.8371  15.9705 0001356  75.7820 284.3548 14.89876327978487"}}, "geometry": {"type": "Point", "coordinates": [34.193710244600496, -65.31404319521396]}}, {"type": "Feature", "properties": {"norad_id": 32376, "name": "COSMO-SKYMED 2", "group": "resource", "lat": 61.19064616843155, "lon": 6.022211696901709, "alt_km": 615.834947305646, "timestamp": "2025-12-16T03:53:26.715410+00:00", "meta": {"OBJECT_NAME": "COSMO-SKYMED 2", "OBJECT_ID": "2007-059A", "EPOCH": "2025-12-15T09:32:18.881664", "MEAN_MOTION": 14.82145855, "ECCENTRICITY": 0.00013888, "INCLINATION": 97.8811, "RA_OF_ASC_NODE": 170.6813, "ARG_OF_PERICENTER": 83.6331, "MEAN_ANOMALY": 276.504, "EPHEMERIS_TYPE": 0, "CLASSIFICATION_TYPE": "U", "NORAD_CAT_ID": 32376, "ELEMENT_SET_NO": 999, "REV_AT_EPOCH": 97477, "BSTAR": 5.1534624e-05, "MEAN_MOTION_DOT": 3.58e-06, "MEAN_MOTION_DDOT": 0}, "tle": {"line1": "1 32376U 07059A   25349.39744076  .00000358  00000+0  51535-4 0  9993", "line2": "2 32376  97.8811 170.6813 0001388  83.6331 276.5040 14.82145855974778"}}, "geometry": {"type": "Point", "coordinates": [6.022211696901709, 61.19064616843155]}}, {"type": "Feature", "properties": {"norad_id": 32382, "name": "RADARSAT-2", "group": "resource", "lat": 34.5262504324372, "lon": -179.3352152060743, "alt_km": 789.1147255058368, "timestamp": "2025-12-16T03:53:26.715420+00:00", "meta": {"OBJECT_NAME": "RADARSAT-2", "OBJECT_ID": "2007-061A", "EPOCH": "2025-12-15T07:03:49.425120", "MEAN_MOTION": 14.29982539, "ECCENTRICITY": 0.00011226, "INCLINATION": 98.5802, "RA_OF_ASC_NODE": 353.8477, "ARG_OF_PERICENTER": 85.7472, "MEAN_ANOMALY": 274.3839, "EPHEMERIS_TYPE": 0, "CLASSIFICATION_TYPE": "U", "NORAD_CAT_ID": 32382, "ELEMENT_SET_NO": 999, "REV_AT_EPOCH": 93967, "BSTAR": 4.089269e-05, "MEAN_MOTION_DOT": 6.2e-07, "MEAN_MOTION_DDOT": 0}, "tle": {"line1": "1 32382U 07061A   25349.29432205  .00000062  00000+0  40893-4 0  9997", "line2": "2 32382  98.5802 353.8477 0001122  85.7472 274.3839 14.29982539939670"}}, "geometry": {"type": "Point", "coordinates": [-179.3352152060743, 34.5262504324372]}}, {"type": "Feature", "properties": {"norad_id": 32783, "name": "CARTOSAT-2A", "group": "resource", "lat": -37.453736805658565, "lon": -146.1433830496011, "alt_km": 644.9314124831853, "timestamp": "2025-12-16T03:53:26.715432+00:00", "meta": {"OBJECT_NAME": "CARTOSAT-2A", "OBJECT_ID": "2008-021A", "EPOCH": "2025-12-15T09:02:49.857216", "MEAN_MOTION": 14.78944864, "ECCENTRICITY": 0.0011651, "INCLINATION": 97.7933, "RA_OF_ASC_NODE": 39.1182, "ARG_OF_PERICENTER": 356.2608, "MEAN_ANOMALY": 3.8515, "EPHEMERIS_TYPE": 0, "CLASSIFICATION_TYPE": "U", "NORAD_CAT_ID": 32783, "ELEMENT_SET_NO": 999, "REV_AT_EPOCH": 95163, "BSTAR": 0.00019319233, "MEAN_MOTION_DOT": 1.376e-05, "MEAN_MOTION_DDOT": 0}, "tle": {"line1": "1 32783U 08021A   25349.37696594  .00001376  00000+0  19319-3 0  9998", "line2": "2 32783  97.7933  39.1182 0011651 356.2608   3.8515 14.78944864951632"}}, "geometry": {"type": "Point", "coordinates": [-146.1433830496011, -37.453736805658565]}}, {"type": "Feature", "properties": {"norad_id": 33320, "name": "HUANJING 1A (HJ-1A)", "group": "resource", "lat": 41.18421145241112, "lon": 165.07530642211765, "alt_km": 621.1797964401003, "timestamp": "2025-12-16T03:53:26.715442+00:00", "meta": {"OBJECT_NAME": "HUANJING 1A (HJ-1A)", "OBJECT_ID": "2008-041A", "EPOCH": "2025-12-15T07:50:39.020064", "MEAN_MOTION": 14.8340641, "ECCENTRICITY": 0.00200094, "INCLINATION": 97.6541, "RA_OF_ASC_NODE": 337.5176, "ARG_OF_PERICENTER": 26.1998, "MEAN_ANOMALY": 334.0224, "EPHEMERIS_TYPE": 0, "CLASSIFICATION_TYPE": "U", "NORAD_CAT_ID": 33320, "ELEMENT_SET_NO": 999, "REV_AT_EPOCH": 93114, "BSTAR": 0.00028289196, "MEAN_MOTION_DOT": 2.278e-05, "MEAN_MOTION_DDOT": 0}, "tle": {"line1": "1 33320U 08041A   25349.32684051  .00002278  00000+0  28289-3 0  9996", "line2": "2 33320  97.6541 337.5176 0020009  26.1998 334.0224 14.83406410931140"}}, "geometry": {"type": "Point", "coordinates": [165.07530642211765, 41.18421145241112]}}, {"type": "Feature", "properties": {"norad_id": 33321, "name": "HUANJING 1B (HJ-1B)", "group": "resource", "lat": -8.35017042212086, "lon": -16.864747707722294, "alt_km": 616.5788784624974, "timestamp": "2025-12-16T03:53:26.715466+00:00", "meta": {"OBJECT_NAME": "HUANJING 1B (HJ-1B)", "OBJECT_ID": "2008-041B", "EPOCH": "2025-12-15T08:29:39.825888", "MEAN_MOTION": 14.82833651, "ECCENTRICITY": 0.00382064, "INCLINATION": 97.6402, "RA_OF_ASC_NODE": 341.2339, "ARG_OF_PERICENTER": 67.4726, "MEAN_ANOMALY": 293.0525, "EPHEMERIS_TYPE": 0, "CLASSIFICATION_TYPE": "U", "NORAD_CAT_ID": 33321, "ELEMENT_SET_NO": 999, "REV_AT_EPOCH": 93116, "BSTAR": 0.00029321683, "MEAN_MOTION_DOT": 2.352e-05, "MEAN_MOTION_DDOT": 0}, "tle": {"line1": "1 33321U 08041B   25349.35393317  .00002352  00000+0  29322-3 0  9994", "line2": "2 33321  97.6402 341.2339 0038206  67.4726 293.0525 14.82833651931165"}}, "geometry": {"type": "Point", "coordinates": [-16.864747707722294, -8.35017042212086]}}, {"type": "Feature", "properties": {"norad_id": 33331, "name": "GEOEYE 1", "group": "resource", "lat": 62.469723437113956, "lon": -102.69228256779579, "alt_km": 673.7210744127442, "timestamp": "2025-12-16T03:53:26.715487+00:00", "meta": {"OBJECT_NAME": "GEOEYE 1", "OBJECT_ID": "2008-042A", "EPOCH": "2025-12-15T07:41:12.560064", "MEAN_MOTION": 14.64703932, "ECCENTRICITY": 0.00027797, "INCLINATION": 98.1253, "RA_OF_ASC_NODE": 60.5688, "ARG_OF_PERICENTER": 274.8039, "MEAN_ANOMALY": 85.2846, "EPHEMERIS_TYPE": 0, "CLASSIFICATION_TYPE": "U", "NORAD_CAT_ID": 33331, "ELEMENT_SET_NO": 999, "REV_AT_EPOCH": 92323, "BSTAR": 0.00012485283, "MEAN_MOTION_DOT": 6.17e-06, "MEAN_MOTION_DDOT": 0}, "tle": {"line1": "1 33331U 08042A   25349.32028426  .00000617  00000+0  12485-3 0  9993", "line2": "2 33331  98.1253  60.5688 0002779 274.8039  85.2846 14.64703932923235"}}, "geometry": {"type": "Point", "coordinates": [-102.69228256779579, 62.469723437113956]}}, {"type": "Feature", "properties": {"norad_id": 33396, "name": "THEOS", "group": "resource", "lat": 35.881519664986044, "lon": -125.57422910438858, "alt_km": 821.9641639731335, "timestamp": "2025-12-16T03:53:26.715505+00:00", "meta": {"OBJECT_NAME": "THEOS", "OBJECT_ID": "2008-049A", "EPOCH": "2025-12-15T08:36:58.738752", "MEAN_MOTION": 14.20097845, "ECCENTRICITY": 0.00011486, "INCLINATION": 98.5868, "RA_OF_ASC_NODE": 47.3714, "ARG_OF_PERICENTER": 96.7754, "MEAN_ANOMALY": 263.3553, "EPHEMERIS_TYPE": 0, "CLASSIFICATION_TYPE": "U", "NORAD_CAT_ID": 33396, "ELEMENT_SET_NO": 999, "REV_AT_EPOCH": 89187, "BSTAR": 0.00014119952, "MEAN_MOTION_DOT": 2.58e-06, "MEAN_MOTION_DDOT": 0}, "tle": {"line1": "1 33396U 08049A   25349.35901318  .00000258  00000+0  14120-3 0  9993", "line2": "2 33396  98.5868  47.3714 0001148  96.7754 263.3553 14.20097845891878"}}, "geometry": {"type": "Point", "coordinates": [-125.57422910438858, 35.881519664986044]}}, {"type": "Feature", "properties": {"norad_id": 33412, "name": "COSMO-SKYMED 3", "group": "resource", "lat": -19.943696923219782, "lon": 17.742305621012697, "alt_km": 546.734939843619, "timestamp": "2025-12-16T03:53:26.715518+00:00", "meta": {"OBJECT_NAME": "COSMO-SKYMED 3", "OBJECT_ID": "2008-054A", "EPOCH": "2025-12-15T07:51:44.887104", "MEAN_MOTION": 15.05385225, "ECCENTRICITY": 0.00162362, "INCLINATION": 97.8477, "RA_OF_ASC_NODE": 199.7626, "ARG_OF_PERICENTER": 164.3009, "MEAN_ANOMALY": 195.8724, "EPHEMERIS_TYPE": 0, "CLASSIFICATION_TYPE": "U", "NORAD_CAT_ID": 33412, "ELEMENT_SET_NO": 999, "REV_AT_EPOCH": 92926, "BSTAR": 0.00028991597, "MEAN_MOTION_DOT": 4.103e-05, "MEAN_MOTION_DDOT": 0}, "tle": {"line1": "1 33412U 08054A   25349.32760286  .00004103  00000+0  28992-3 0  9997", "line2": "2 33412  97.8477 199.7626 0016236 164.3009 195.8724 15.05385225929268"}}, "geometry": {"type": "Point", "coordinates": [17.742305621012697, -19.943696923219782]}}, {"type": "Feature", "properties": {"norad_id": 33446, "name": "YAOGAN-4", "group": "resource", "lat": -78.76062299941748, "lon": 55.771692635442726, "alt_km": 622.0894419005153, "timestamp": "2025-12-16T03:53:26.715529+00:00", "meta": {"OBJECT_NAME": "YAOGAN-4", "OBJECT_ID": "2008-061A", "EPOCH": "2025-12-15T07:16:32.228256", "MEAN_MOTION": 14.82691617, "ECCENTRICITY": 0.00133933, "INCLINATION": 97.918, "RA_OF_ASC_NODE": 279.3773, "ARG_OF_PERICENTER": 314.3487, "MEAN_ANOMALY": 45.6628, "EPHEMERIS_TYPE": 0, "CLASSIFICATION_TYPE": "U", "NORAD_CAT_ID": 33446, "ELEMENT_SET_NO": 999, "REV_AT_EPOCH": 91841, "BSTAR": 0.00017368353, "MEAN_MOTION_DOT": 1.349e-05, "MEAN_MOTION_DDOT": 0}, "tle": {"line1": "1 33446U 08061A   25349.30315079  .00001349  00000+0  17368-3 0  9990", "line2": "2 33446  97.9180 279.3773 0013393 314.3487  45.6628 14.82691617918412"}}, "geometry": {"type": "Point", "coordinates": [55.771692635442726, -78.76062299941748]}}]}